{
  "type": "FeatureCollection",
  "features": [
    {
      "type": "Feature",
      "properties": {
        "norad_id": 30103,
        "name": "FENGYUN 1C DEB",
        "group": "fengyun-1c-debris",
        "lat": -62.83232944367057,
        "lon": 121.55378850983142,
        "alt_km": 825.8548584808032,
        "timestamp": "2025-12-04T23:34:05.996412+00:00",
        "meta_object_name": "FENGYUN 1C DEB",
        "meta_object_id": "1999-025RG",
        "meta_epoch": "2025-12-04T12:53:34.980288",
        "meta_mean_motion": 14.24832363,
        "meta_eccentricity": 0.0063831,
        "meta_inclination": 99.244,
        "meta_ra_of_asc_node": 319.587,
        "meta_arg_of_pericenter": 143.0424,
        "meta_mean_anomaly": 340.2254,
        "meta_ephemeris_type": 0,
        "meta_classification_type": "U",
        "meta_norad_cat_id": 30103,
        "meta_element_set_no": 999,
        "meta_rev_at_epoch": 97802,
        "meta_bstar": 0.0007333,
        "meta_mean_motion_dot": 1.699e-05,
        "meta_mean_motion_ddot": 0,
        "tle_line1": "1 30103U 99025RG  25338.53721042  .00001699  00000+0  73330-3 0  9990",
        "tle_line2": "2 30103  99.2440 319.5870 0063831 143.0424 340.2254 14.24832363978021"
      },
      "geometry": {
        "type": "Point",
        "coordinates": [
          121.55378850983142,
          -62.83232944367057
        ]
      }
    },
    {
      "type": "Feature",
      "properties": {
        "norad_id": 30104,
        "name": "FENGYUN 1C DEB",
        "group": "fengyun-1c-debris",
        "lat": 66.3796343483233,
        "lon": 156.75765740337462,
        "alt_km": 775.5123033069758,
        "timestamp": "2025-12-04T23:34:05.996422+00:00",
        "meta_object_name": "FENGYUN 1C DEB",
        "meta_object_id": "1999-025RH",
        "meta_epoch": "2025-12-04T13:26:14.563392",
        "meta_mean_motion": 14.25625747,
        "meta_eccentricity": 0.0073767,
        "meta_inclination": 98.3591,
        "meta_ra_of_asc_node": 176.0017,
        "meta_arg_of_pericenter": 132.1059,
        "meta_mean_anomaly": 291.3114,
        "meta_ephemeris_type": 0,
        "meta_classification_type": "U",
        "meta_norad_cat_id": 30104,
        "meta_element_set_no": 999,
        "meta_rev_at_epoch": 97776,
        "meta_bstar": 0.0014031,
        "meta_mean_motion_dot": 3.381e-05,
        "meta_mean_motion_ddot": 0,
        "tle_line1": "1 30104U 99025RH  25338.55989078  .00003381  00000+0  14031-2 0  9990",
        "tle_line2": "2 30104  98.3591 176.0017 0073767 132.1059 291.3114 14.25625747977768"
      },
      "geometry": {
        "type": "Point",
        "coordinates": [
          156.75765740337462,
          66.3796343483233
        ]
      }
    },
    {
      "type": "Feature",
      "properties": {
        "norad_id": 30105,
        "name": "FENGYUN 1C DEB",
        "group": "fengyun-1c-debris",
        "lat": -63.397905727669816,
        "lon": -17.197136477946234,
        "alt_km": 963.58115750463,
        "timestamp": "2025-12-04T23:34:05.996432+00:00",
        "meta_object_name": "FENGYUN 1C DEB",
        "meta_object_id": "1999-025RJ",
        "meta_epoch": "2025-12-04T12:03:11.928960",
        "meta_mean_motion": 14.21378116,
        "meta_eccentricity": 0.0199801,
        "meta_inclination": 98.5932,
        "meta_ra_of_asc_node": 324.7618,
        "meta_arg_of_pericenter": 97.7195,
        "meta_mean_anomaly": 264.6719,
        "meta_ephemeris_type": 0,
        "meta_classification_type": "U",
        "meta_norad_cat_id": 30105,
        "meta_element_set_no": 999,
        "meta_rev_at_epoch": 97645,
        "meta_bstar": 0.00051284,
        "meta_mean_motion_dot": 1.328e-05,
        "meta_mean_motion_ddot": 0,
        "tle_line1": "1 30105U 99025RJ  25338.50222140  .00001328  00000+0  51284-3 0  9997",
        "tle_line2": "2 30105  98.5932 324.7618 0199801  97.7195 264.6719 14.21378116976454"
      },
      "geometry": {
        "type": "Point",
        "coordinates": [
          -17.197136477946234,
          -63.397905727669816
        ]
      }
    },
    {
      "type": "Feature",
      "properties": {
        "norad_id": 30106,
        "name": "FENGYUN 1C DEB",
        "group": "fengyun-1c-debris",
        "lat": -45.22762279469126,
        "lon": -105.48341785262954,
        "alt_km": 622.1173968161174,
        "timestamp": "2025-12-04T23:34:05.996442+00:00",
        "meta_object_name": "FENGYUN 1C DEB",
        "meta_object_id": "1999-025RK",
        "meta_epoch": "2025-12-04T15:58:04.588896",
        "meta_mean_motion": 14.84180676,
        "meta_eccentricity": 0.0047809,
        "meta_inclination": 98.9242,
        "meta_ra_of_asc_node": 245.0493,
        "meta_arg_of_pericenter": 225.8541,
        "meta_mean_anomaly": 196.666,
        "meta_ephemeris_type": 0,
        "meta_classification_type": "U",
        "meta_norad_cat_id": 30106,
        "meta_element_set_no": 999,
        "meta_rev_at_epoch": 98425,
        "meta_bstar": 0.011099,
        "meta_mean_motion_dot": 0.00095888,
        "meta_mean_motion_ddot": 0,
        "tle_line1": "1 30106U 99025RK  25338.66533089  .00095888  00000+0  11099-1 0  9994",
        "tle_line2": "2 30106  98.9242 245.0493 0047809 225.8541 196.6660 14.84180676984255"
      },
      "geometry": {
        "type": "Point",
        "coordinates": [
          -105.48341785262954,
          -45.22762279469126
        ]
      }
    },
    {
      "type": "Feature",
      "properties": {
        "norad_id": 30107,
        "name": "FENGYUN 1C DEB",
        "group": "fengyun-1c-debris",
        "lat": 39.64953489726268,
        "lon": 28.555338716748047,
        "alt_km": 859.7383003143341,
        "timestamp": "2025-12-04T23:34:05.996453+00:00",
        "meta_object_name": "FENGYUN 1C DEB",
        "meta_object_id": "1999-025RL",
        "meta_epoch": "2025-12-04T14:53:26.556000",
        "meta_mean_motion": 14.14415671,
        "meta_eccentricity": 0.0126363,
        "meta_inclination": 98.8483,
        "meta_ra_of_asc_node": 35.6142,
        "meta_arg_of_pericenter": 298.9032,
        "meta_mean_anomaly": 59.9512,
        "meta_ephemeris_type": 0,
        "meta_classification_type": "U",
        "meta_norad_cat_id": 30107,
        "meta_element_set_no": 999,
        "meta_rev_at_epoch": 97446,
        "meta_bstar": 0.00018293,
        "meta_mean_motion_dot": 3.33e-06,
        "meta_mean_motion_ddot": 0,
        "tle_line1": "1 30107U 99025RL  25338.62044625  .00000333  00000+0  18293-3 0  9990",
        "tle_line2": "2 30107  98.8483  35.6142 0126363 298.9032  59.9512 14.14415671974463"
      },
      "geometry": {
        "type": "Point",
        "coordinates": [
          28.555338716748047,
          39.64953489726268
        ]
      }
    },
    {
      "type": "Feature",
      "properties": {
        "norad_id": 30108,
        "name": "FENGYUN 1C DEB",
        "group": "fengyun-1c-debris",
        "lat": -45.29422440514809,
        "lon": 136.17441847372814,
        "alt_km": 984.4642785950409,
        "timestamp": "2025-12-04T23:34:05.996464+00:00",
        "meta_object_name": "FENGYUN 1C DEB",
        "meta_object_id": "1999-025RM",
        "meta_epoch": "2025-12-04T12:53:01.476096",
        "meta_mean_motion": 14.17149501,
        "meta_eccentricity": 0.0197955,
        "meta_inclination": 98.6597,
        "meta_ra_of_asc_node": 324.5977,
        "meta_arg_of_pericenter": 45.6745,
        "meta_mean_anomaly": 70.2942,
        "meta_ephemeris_type": 0,
        "meta_classification_type": "U",
        "meta_norad_cat_id": 30108,
        "meta_element_set_no": 999,
        "meta_rev_at_epoch": 97482,
        "meta_bstar": 0.00058038,
        "meta_mean_motion_dot": 1.374e-05,
        "meta_mean_motion_ddot": 0,
        "tle_line1": "1 30108U 99025RM  25338.53682264  .00001374  00000+0  58038-3 0  9995",
        "tle_line2": "2 30108  98.6597 324.5977 0197955  45.6745  70.2942 14.17149501974829"
      },
      "geometry": {
        "type": "Point",
        "coordinates": [
          136.17441847372814,
          -45.29422440514809
        ]
      }
    },
    {
      "type": "Feature",
      "properties": {
        "norad_id": 30109,
        "name": "FENGYUN 1C DEB",
        "group": "fengyun-1c-debris",
        "lat": -31.4802979133267,
        "lon": -21.92376376423022,
        "alt_km": 803.1819651452997,
        "timestamp": "2025-12-04T23:34:05.996474+00:00",
        "meta_object_name": "FENGYUN 1C DEB",
        "meta_object_id": "1999-025RN",
        "meta_epoch": "2025-12-04T06:51:04.282272",
        "meta_mean_motion": 14.1752658,
        "meta_eccentricity": 0.0167171,
        "meta_inclination": 98.5074,
        "meta_ra_of_asc_node": 332.1503,
        "meta_arg_of_pericenter": 256.9654,
        "meta_mean_anomaly": 116.8992,
        "meta_ephemeris_type": 0,
        "meta_classification_type": "U",
        "meta_norad_cat_id": 30109,
        "meta_element_set_no": 999,
        "meta_rev_at_epoch": 97432,
        "meta_bstar": 0.00072853,
        "meta_mean_motion_dot": 1.653e-05,
        "meta_mean_motion_ddot": 0,
        "tle_line1": "1 30109U 99025RN  25338.28546623  .00001653  00000+0  72853-3 0  9997",
        "tle_line2": "2 30109  98.5074 332.1503 0167171 256.9654 116.8992 14.17526580974325"
      },
      "geometry": {
        "type": "Point",
        "coordinates": [
          -21.92376376423022,
          -31.4802979133267
        ]
      }
    }
  ]
}